NORAD_CAT_ID,OBJECT_NAME,OBJECT_TYPE,EPOCH,MEAN_MOTION,ECCENTRICITY,INCLINATION,RA_OF_ASC_NODE,ARG_OF_PERICENTER,MEAN_ANOMALY,BSTAR,MEAN_MOTION_DOT,MEAN_MOTION_DDOT,TLE_LINE0,TLE_LINE1,TLE_LINE2,SEMIMAJOR_AXIS,PERIOD,APOGEE,PERIGEE,DECAYED
52345.0,STARLINK-3852,PAYLOAD,2024-01-07 17:00:47,15.0883937,0.0001346,53.2164,154.6248,84.7438,275.3707,3.3903e-05,2.52e-06,0.0,0 STARLINK-3852,1 52345U 22045Q   24007.70888789  .00000252  00000-0  33903-4 0  9991,2 52345  53.2164 154.6248 0001346  84.7438 275.3707 15.08839370 96202,6917.882,95.438,540.678,538.816,0.0
52345.0,STARLINK-3852,PAYLOAD,2024-01-07 20:11:34,15.08839551,0.000135,53.2165,154.0298,85.8433,274.2714,3.214e-05,2.24e-06,0.0,0 STARLINK-3852,1 52345U 22045Q   24007.84136758  .00000224  00000-0  32140-4 0  9999,2 52345  53.2165 154.0298 0001350  85.8433 274.2714 15.08839551 96223,6917.882,95.438,540.681,538.813,0.0
52345.0,STARLINK-3852,PAYLOAD,2024-01-08 13:40:48,15.08840589,0.0001299,53.2165,150.7599,88.5445,271.5696,0.00010209,1.337e-05,0.0,0 STARLINK-3852,1 52345U 22045Q   24008.57000553  .00001337  00000-0  10209-3 0  9990,2 52345  53.2165 150.7599 0001299  88.5445 271.5696 15.08840589 96339,6917.879,95.438,540.642,538.845,0.0
52345.0,STARLINK-3852,PAYLOAD,2024-01-08 16:51:34,15.08844522,0.0001356,53.2165,150.1649,82.4101,277.7046,0.00012954,1.775e-05,0.0,0 STARLINK-3852,1 52345U 22045Q   24008.70248282  .00001775  00000-0  12954-3 0  9993,2 52345  53.2165 150.1649 0001356  82.4101 277.7046 15.08844522 96355,6917.867,95.437,540.67,538.794,0.0
52345.0,STARLINK-3852,PAYLOAD,2024-01-09 13:31:35,15.08841506,0.0001344,53.2164,146.3007,74.9048,285.2093,6.2862e-05,7.13e-06,0.0,0 STARLINK-3852,1 52345U 22045Q   24009.56360764  .00000713  00000-0  62862-4 0  9993,2 52345  53.2164 146.3007 0001344  74.9048 285.2093 15.08841506 96481,6917.876,95.437,540.671,538.811,0.0
52345.0,STARLINK-3852,PAYLOAD,2024-01-09 16:42:21,15.08845385,0.0001297,53.2168,145.7052,90.4927,269.6214,8.4885e-05,1.063e-05,0.0,0 STARLINK-3852,1 52345U 22045Q   24009.69608363  .00001063  00000-0  84885-4 0  9995,2 52345  53.2168 145.7052 0001297  90.4927 269.6214 15.08845385 96507,6917.864,95.437,540.626,538.832,0.0
52345.0,STARLINK-3852,PAYLOAD,2024-01-10 08:36:13,15.08840734,0.0001713,53.2161,142.7315,95.0829,265.0359,-4.7976e-06,-3.64e-06,0.0,0 STARLINK-3852,1 52345U 22045Q   24010.35848957 -.00000364  00000-0 -47976-5 0  9991,2 52345  53.2161 142.7315 0001713  95.0829 265.0359 15.08840734 96608,6917.878,95.438,540.928,538.558,0.0
52345.0,STARLINK-3852,PAYLOAD,2024-01-10 14:57:45,15.08845809,0.0001274,53.2161,141.5405,92.7276,267.3862,1.859e-05,8e-08,0.0,0 STARLINK-3852,1 52345U 22045Q   24010.62344497  .00000008  00000-0  18590-4 0  9993,2 52345  53.2161 141.5405 0001274  92.7276 267.3862 15.08845809 96643,6917.863,95.437,540.609,538.846,0.0
52345.0,STARLINK-3852,PAYLOAD,2024-01-11 14:48:32,15.08844575,0.0001298,53.216,137.0808,92.0784,268.0357,6.1429e-05,6.9e-06,0.0,0 STARLINK-3852,1 52345U 22045Q   24011.61704481  .00000690  00000-0  61429-4 0  9992,2 52345  53.2160 137.0808 0001298  92.0784 268.0357 15.08844575 96794,6917.866,95.437,540.629,538.833,0.0
52345.0,STARLINK-3852,PAYLOAD,2024-01-12 11:28:34,15.08836462,0.0001299,53.2159,133.2139,97.313,262.801,1.1574e-05,-1.04e-06,0.0,0 STARLINK-3852,1 52345U 22045Q   24012.47817289 -.00000104  00000-0  11574-4 0  9995,2 52345  53.2159 133.2139 0001299  97.3130 262.8010 15.08836462 96920,6917.891,95.438,540.655,538.858,0.0
52345.0,STARLINK-3852,PAYLOAD,2024-01-12 14:39:20,15.08838231,0.000133,53.2162,132.619,92.84,267.2745,1.4852e-05,-5.2e-07,0.0,0 STARLINK-3852,1 52345U 22045Q   24012.61065174 -.00000052  00000-0  14852-4 0  9993,2 52345  53.2162 132.6190 0001330  92.8400 267.2745 15.08838231 96942,6917.886,95.438,540.671,538.831,0.0
52345.0,STARLINK-3852,PAYLOAD,2024-01-13 14:30:07,15.0883411,0.0001459,53.2174,128.1645,98.8472,261.2685,9.3737e-05,1.204e-05,0.0,0 STARLINK-3852,1 52345U 22045Q   24013.60425616  .00001204  00000-0  93737-4 0  9992,2 52345  53.2174 128.1645 0001459  98.8472 261.2685 15.08834110 97093,6917.898,95.438,540.773,538.754,0.0
52345.0,STARLINK-3852,PAYLOAD,2024-01-13 17:40:53,15.08843909,0.0001354,53.2168,127.5624,88.5883,271.5264,2.7496e-05,1.5e-06,0.0,0 STARLINK-3852,1 52345U 22045Q   24013.73673122  .00000150  00000-0  27496-4 0  9991,2 52345  53.2168 127.5624 0001354  88.5883 271.5264 15.08843909 97118,6917.868,95.437,540.67,538.797,0.0
52345.0,STARLINK-3852,PAYLOAD,2024-01-14 14:20:53,15.08851667,0.0001319,53.2167,123.697,93.5065,266.6078,0.00017073,2.431e-05,0.0,0 STARLINK-3852,1 52345U 22045Q   24014.59784507  .00002431  00000-0  17073-3 0  9999,2 52345  53.2167 123.6970 0001319  93.5065 266.6078 15.08851667 97249,6917.845,95.437,540.622,538.797,0.0
52345.0,STARLINK-3852,PAYLOAD,2024-01-15 12:36:18,15.08844481,0.0001562,53.2177,119.5349,79.8736,280.2432,0.00010658,1.409e-05,0.0,0 STARLINK-3852,1 52345U 22045Q   24015.52521219  .00001409  00000-0  10658-3 0  9998,2 52345  53.2177 119.5349 0001562  79.8736 280.2432 15.08844481 97383,6917.867,95.437,540.812,538.651,0.0
52345.0,STARLINK-3852,PAYLOAD,2024-01-15 14:11:41,15.08848608,0.000198,53.2177,119.2373,51.2568,308.8601,0.00013525,1.865e-05,0.0,0 STARLINK-3852,1 52345U 22045Q   24015.59145032  .00001865  00000-0  13525-3 0  9992,2 52345  53.2177 119.2373 0001980  51.2568 308.8601 15.08848608 97399,6917.854,95.437,541.089,538.349,0.0
52345.0,STARLINK-3852,PAYLOAD,2024-01-15 15:47:03,15.08853451,0.0001639,53.2177,118.9399,67.5345,292.582,0.00017455,2.492e-05,0.0,0 STARLINK-3852,1 52345U 22045Q   24015.65768508  .00002492  00000-0  17455-3 0  9991,2 52345  53.2177 118.9399 0001639  67.5345 292.5820 15.08853451 97403,6917.839,95.437,540.838,538.57,0.0
52345.0,STARLINK-3852,PAYLOAD,2024-01-16 12:27:05,15.08839608,0.0001305,53.2164,115.075,94.5243,265.5898,-7.7536e-05,-1.522e-05,0.0,0 STARLINK-3852,1 52345U 22045Q   24016.51881891 -.00001522  00000-0 -77536-4 0  9990,2 52345  53.2164 115.0750 0001305  94.5243 265.5898 15.08839608 97532,6917.882,95.438,540.649,538.844,0.0
52345.0,STARLINK-3852,PAYLOAD,2024-01-16 14:02:29,15.08840711,0.0001264,53.2164,114.7779,85.982,274.1317,-6.7938e-05,-1.369e-05,0.0,0 STARLINK-3852,1 52345U 22045Q   24016.58505806 -.00001369  00000-0 -67938-4 0  9990,2 52345  53.2164 114.7779 0001264  85.9820 274.1317 15.08840711 97548,6917.878,95.438,540.618,538.869,0.0
52345.0,STARLINK-3852,PAYLOAD,2024-01-16 15:37:51,15.08842918,0.0001235,53.2167,114.4798,91.6681,268.4453,-5.5034e-05,-1.164e-05,0.0,0 STARLINK-3852,1 52345U 22045Q   24016.65129514 -.00001164  00000-0 -55034-4 0  9993,2 52345  53.2167 114.4798 0001235  91.6681 268.4453 15.08842918 97555,6917.871,95.437,540.591,538.882,0.0
52345.0,STARLINK-3852,PAYLOAD,2024-01-17 13:53:16,15.08847171,0.0001783,53.2186,110.3197,66.8863,293.2317,-5.9897e-05,-1.241e-05,0.0,0 STARLINK-3852,1 52345U 22045Q   24017.57865778 -.00001241  00000-0 -59897-4 0  9991,2 52345  53.2186 110.3197 0001783  66.8863 293.2317 15.08847171 97694,6917.858,95.437,540.957,538.49,0.0
52345.0,STARLINK-3852,PAYLOAD,2024-01-18 10:33:17,15.08837371,0.0001939,53.2187,106.4541,62.2139,297.905,0.00013631,1.882e-05,0.0,0 STARLINK-3852,1 52345U 22045Q   24018.43978057  .00001882  00000-0  13631-3 0  9996,2 52345  53.2187 106.4541 0001939  62.2139 297.9050 15.08837371 97824,6917.888,95.438,541.095,538.412,0.0
52345.0,STARLINK-3852,PAYLOAD,2024-01-18 15:19:25,15.08846019,0.0001728,53.2197,105.5554,88.5075,271.6115,0.00012331,1.675e-05,0.0,0 STARLINK-3852,1 52345U 22045Q   24018.63849372  .00001675  00000-0  12331-3 0  9991,2 52345  53.2197 105.5554 0001728  88.5075 271.6115 15.08846019 97858,6917.862,95.437,540.922,538.532,0.0
52345.0,STARLINK-3852,PAYLOAD,2024-01-19 11:59:26,15.08849785,0.0001689,53.2193,101.6856,91.3152,268.8033,3.1666e-05,2.16e-06,0.0,0 STARLINK-3852,1 52345U 22045Q   24019.49961294  .00000216  00000-0  31666-4 0  9997,2 52345  53.2193 101.6856 0001689  91.3152 268.8033 15.08849785 97984,6917.85,95.437,540.884,538.547,0.0
52345.0,STARLINK-3852,PAYLOAD,2024-01-20 11:50:13,15.08844785,0.0001432,53.2168,97.2331,98.4345,261.681,2.3385e-06,-2.51e-06,0.0,0 STARLINK-3852,1 52345U 22045Q   24020.49321618 -.00000251  00000-0  23385-5 0  9999,2 52345  53.2168  97.2331 0001432  98.4345 261.6810 15.08844785 98139,6917.866,95.437,540.721,538.74,0.0
52345.0,STARLINK-3852,PAYLOAD,2024-01-20 15:01:00,15.08845576,0.0001467,53.217,96.6373,104.4924,255.6231,2.1316e-05,5.1e-07,0.0,0 STARLINK-3852,1 52345U 22045Q   24020.62569460  .00000051  00000-0  21316-4 0  9991,2 52345  53.2170  96.6373 0001467 104.4924 255.6231 15.08845576 98151,6917.863,95.437,540.743,538.713,0.0
52345.0,STARLINK-3852,PAYLOAD,2024-01-21 11:41:01,15.0884398,0.0001501,53.2188,92.7697,98.3192,261.797,1.0711e-05,-1.18e-06,0.0,0 STARLINK-3852,1 52345U 22045Q   24021.48681732 -.00000118  00000-0  10711-4 0  9995,2 52345  53.2188  92.7697 0001501  98.3192 261.7970 15.08843980 98282,6917.868,95.437,540.772,538.695,0.0
52345.0,STARLINK-3852,PAYLOAD,2024-01-22 11:31:48,15.08841612,0.0001207,53.2175,88.3114,95.766,264.347,-1.5572e-05,-5.36e-06,0.0,0 STARLINK-3852,1 52345U 22045Q   24022.48042126 -.00000536  00000-0 -15572-4 0  9999,2 52345  53.2175  88.3114 0001207  95.7660 264.3470 15.08841612 98438,6917.875,95.437,540.575,538.905,0.0
52345.0,STARLINK-3852,PAYLOAD,2024-01-22 22:39:30,15.08839002,0.0001164,53.2176,86.2337,97.3245,262.788,-4.2854e-05,-9.7e-06,0.0,0 STARLINK-3852,1 52345U 22045Q   24022.94410401 -.00000970  00000-0 -42854-4 0  9990,2 52345  53.2176  86.2337 0001164  97.3245 262.7880 15.08839002 98507,6917.883,95.438,540.554,538.943,0.0
52345.0,STARLINK-3852,PAYLOAD,2024-01-23 11:22:35,15.08850422,0.0001316,53.2173,83.8522,84.4516,275.6626,0.00011536,1.549e-05,0.0,0 STARLINK-3852,1 52345U 22045Q   24023.47401627  .00001549  00000-0  11536-3 0  9992,2 52345  53.2173  83.8522 0001316  84.4516 275.6626 15.08850422 98588,6917.849,95.437,540.624,538.803,0.0
